{"type": "FeatureCollection", "features": [ {"type": "Feature", "properties": {"norad_id": 34376, "name": "IRIDIUM 33 DEB", "group": "iridium-33-debris", "lat": -61.23278040521466, "lon": -173.20393623624483, "alt_km": 702.1685600273595, "timestamp": "2025-12-27T05:29:39.588909+00:00", "meta": {"OBJECT_NAME": "IRIDIUM 33 DEB", "OBJECT_ID": "1997-051FU", "EPOCH": "2025-12-26T23:28:16.471488", "MEAN_MOTION": 14.62769588, "ECCENTRICITY": 0.00286799, "INCLINATION": 86.2986, "RA_OF_ASC_NODE": 0.1373, "ARG_OF_PERICENTER": 120.2874, "MEAN_ANOMALY": 240.1181, "EPHEMERIS_TYPE": 0, "CLASSIFICATION_TYPE": "U", "NORAD_CAT_ID": 34376, "ELEMENT_SET_NO": 999, "REV_AT_EPOCH": 88215, "BSTAR": 0.0018716892, "MEAN_MOTION_DOT": 9.625e-05, "MEAN_MOTION_DDOT": 0}, "tle": {"line1": "1 34376U 97051FU  25360.97796842  .00009625  00000+0  18717-2 0  9990", "line2": "2 34376  86.2986   0.1373 0028679 120.2874 240.1181 14.62769588882151"}}, "geometry": {"type": "Point", "coordinates": [-173.20393623624483, -61.23278040521466]}}, {"type": "Feature", "properties": {"norad_id": 34486, "name": "IRIDIUM 33 DEB", "group": "iridium-33-debris", "lat": 39.696203883124085, "lon": 8.334060642747643, "alt_km": 566.553410581213, "timestamp": "2025-12-27T05:29:39.588920+00:00", "meta": {"OBJECT_NAME": "IRIDIUM 33 DEB", "OBJECT_ID": "1997-051GB", "EPOCH": "2025-12-26T00:39:56.499264", "MEAN_MOTION": 14.96400313, "ECCENTRICITY": 0.00139183, "INCLINATION": 86.3935, "RA_OF_ASC_NODE": 5.8877, "ARG_OF_PERICENTER": 74.4824, "MEAN_ANOMALY": 338.8012, "EPHEMERIS_TYPE": 0, "CLASSIFICATION_TYPE": "U", "NORAD_CAT_ID": 34486, "ELEMENT_SET_NO": 999, "REV_AT_EPOCH": 89185, "BSTAR": 0.0021412617, "MEAN_MOTION_DOT": 0.00024383, "MEAN_MOTION_DDOT": 0}, "tle": {"line1": "1 34486U 97051GB  25360.02773726  .00024383  00000+0  21413-2 0  9999", "line2": "2 34486  86.3935   5.8877 0013918  74.4824 338.8012 14.96400313891854"}}, "geometry": {"type": "Point", "coordinates": [8.334060642747643, 39.696203883124085]}}, {"type": "Feature", "properties": {"norad_id": 34487, "name": "IRIDIUM 33 DEB", "group": "iridium-33-debris", "lat": -1.0267351375893257, "lon": -173.7958535744388, "alt_km": 754.1583871705207, "timestamp": "2025-12-27T05:29:39.588930+00:00", "meta": {"OBJECT_NAME": "IRIDIUM 33 DEB", "OBJECT_ID": "1997-051GC", "EPOCH": "2025-12-26T00:37:21.163296", "MEAN_MOTION": 14.43232747, "ECCENTRICITY": 0.00332617, "INCLINATION": 86.3429, "RA_OF_ASC_NODE": 6.6563, "ARG_OF_PERICENTER": 87.1121, "MEAN_ANOMALY": 327.0907, "EPHEMERIS_TYPE": 0, "CLASSIFICATION_TYPE": "U", "NORAD_CAT_ID": 34487, "ELEMENT_SET_NO": 999, "REV_AT_EPOCH": 88440, "BSTAR": 0.00018559814, "MEAN_MOTION_DOT": 6.49e-06, "MEAN_MOTION_DDOT": 0}, "tle": {"line1": "1 34487U 97051GC  25360.02593939  .00000649  00000+0  18560-3 0  9995", "line2": "2 34487  86.3429   6.6563 0033261  87.1121 327.0907 14.43232747884400"}}, "geometry": {"type": "Point", "coordinates": [-173.7958535744388, -1.0267351375893257]}}, {"type": "Feature", "properties": {"norad_id": 34488, "name": "IRIDIUM 33 DEB", "group": "iridium-33-debris", "lat": 51.50326600411505, "lon": -56.74653790981084, "alt_km": 456.32158253280704, "timestamp": "2025-12-27T05:29:39.588941+00:00", "meta": {"OBJECT_NAME": "IRIDIUM 33 DEB", "OBJECT_ID": "1997-051GD", "EPOCH": "2025-12-25T20:22:16.973184", "MEAN_MOTION": 15.32823177, "ECCENTRICITY": 0.00085439, "INCLINATION": 86.325, "RA_OF_ASC_NODE": 299.3053, "ARG_OF_PERICENTER": 30.257, "MEAN_ANOMALY": 329.9171, "EPHEMERIS_TYPE": 0, "CLASSIFICATION_TYPE": "U", "NORAD_CAT_ID": 34488, "ELEMENT_SET_NO": 999, "REV_AT_EPOCH": 89440, "BSTAR": 0.0046585997, "MEAN_MOTION_DOT": 0.00150449, "MEAN_MOTION_DDOT": 0}, "tle": {"line1": "1 34488U 97051GD  25359.84880756  .00150449  00000+0  46586-2 0  9992", "line2": "2 34488  86.3250 299.3053 0008543  30.2570 329.9171 15.32823177894407"}}, "geometry": {"type": "Point", "coordinates": [-56.74653790981084, 51.50326600411505]}}, {"type": "Feature", "properties": {"norad_id": 34492, "name": "IRIDIUM 33 DEB", "group": "iridium-33-debris", "lat": 82.57002514739423, "lon": -3.0035627607913753, "alt_km": 836.5478975223496, "timestamp": "2025-12-27T05:29:39.588952+00:00", "meta": {"OBJECT_NAME": "IRIDIUM 33 DEB", "OBJECT_ID": "1997-051GH", "EPOCH": "2025-12-26T22:37:45.027264", "MEAN_MOTION": 14.25970282, "ECCENTRICITY": 0.01888439, "INCLINATION": 86.473, "RA_OF_ASC_NODE": 328.887, "ARG_OF_PERICENTER": 192.0084, "MEAN_ANOMALY": 226.0259, "EPHEMERIS_TYPE": 0, "CLASSIFICATION_TYPE": "U", "NORAD_CAT_ID": 34492, "ELEMENT_SET_NO": 999, "REV_AT_EPOCH": 85261, "BSTAR": 0.0032812565, "MEAN_MOTION_DOT": 9.462e-05, "MEAN_MOTION_DDOT": 0}, "tle": {"line1": "1 34492U 97051GH  25360.94288226  .00009462  00000+0  32813-2 0  9990", "line2": "2 34492  86.4730 328.8870 0188843 192.0084 226.0259 14.25970282852612"}}, "geometry": {"type": "Point", "coordinates": [-3.0035627607913753, 82.57002514739423]}}, {"type": "Feature", "properties": {"norad_id": 34497, "name": "IRIDIUM 33 DEB", "group": "iridium-33-debris", "lat": 48.90253247348987, "lon": 50.49255647347265, "alt_km": 820.6923889412728, "timestamp": "2025-12-27T05:29:39.588962+00:00", "meta": {"OBJECT_NAME": "IRIDIUM 33 DEB", "OBJECT_ID": "1997-051GN", "EPOCH": "2025-12-22T21:33:03.136608", "MEAN_MOTION": 14.27482363, "ECCENTRICITY": 0.00780484, "INCLINATION": 86.2769, "RA_OF_ASC_NODE": 48.0617, "ARG_OF_PERICENTER": 306.2683, "MEAN_ANOMALY": 179.2919, "EPHEMERIS_TYPE": 0, "CLASSIFICATION_TYPE": "U", "NORAD_CAT_ID": 34497, "ELEMENT_SET_NO": 999, "REV_AT_EPOCH": 87028, "BSTAR": 0.00056228088, "MEAN_MOTION_DOT": 1.443e-05, "MEAN_MOTION_DDOT": 0}, "tle": {"line1": "1 34497U 97051GN  25356.89795297  .00001443  00000+0  56228-3 0  9993", "line2": "2 34497  86.2769  48.0617 0078048 306.2683 179.2919 14.27482363870281"}}, "geometry": {"type": "Point", "coordinates": [50.49255647347265, 48.90253247348987]}}, {"type": "Feature", "properties": {"norad_id": 34508, "name": "IRIDIUM 33 DEB", "group": "iridium-33-debris", "lat": 58.648182425415314, "lon": 102.48147860002304, "alt_km": 739.3463614782477, "timestamp": "2025-12-27T05:29:39.588972+00:00", "meta": {"OBJECT_NAME": "IRIDIUM 33 DEB", "OBJECT_ID": "1997-051GZ", "EPOCH": "2025-12-26T19:12:17.155584", "MEAN_MOTION": 14.38532192, "ECCENTRICITY": 0.00667146, "INCLINATION": 86.3698, "RA_OF_ASC_NODE": 96.6821, "ARG_OF_PERICENTER": 127.9184, "MEAN_ANOMALY": 232.8072, "EPHEMERIS_TYPE": 0, "CLASSIFICATION_TYPE": "U", "NORAD_CAT_ID": 34508, "ELEMENT_SET_NO": 999, "REV_AT_EPOCH": 87511, "BSTAR": 0.0012424793, "MEAN_MOTION_DOT": 3.917e-05, "MEAN_MOTION_DDOT": 0}, "tle": {"line1": "1 34508U 97051GZ  25360.80019856  .00003917  00000+0  12425-2 0  9990", "line2": "2 34508  86.3698  96.6821 0066714 127.9184 232.8072 14.38532192875114"}}, "geometry": {"type": "Point", "coordinates": [102.48147860002304, 58.648182425415314]}}, {"type": "Feature", "properties": {"norad_id": 34521, "name": "IRIDIUM 33 DEB", "group": "iridium-33-debris", "lat": 82.53701383235959, "lon": 175.25887458424793, "alt_km": 673.5076806154266, "timestamp": "2025-12-27T05:29:39.588983+00:00", "meta": {"OBJECT_NAME": "IRIDIUM 33 DEB", "OBJECT_ID": "1997-051HN", "EPOCH": "2025-12-26T12:38:41.834976", "MEAN_MOTION": 14.63480775, "ECCENTRICITY": 0.0003338, "INCLINATION": 86.379, "RA_OF_ASC_NODE": 24.4764, "ARG_OF_PERICENTER": 162.7334, "MEAN_ANOMALY": 197.3992, "EPHEMERIS_TYPE": 0, "CLASSIFICATION_TYPE": "U", "NORAD_CAT_ID": 34521, "ELEMENT_SET_NO": 999, "REV_AT_EPOCH": 88674, "BSTAR": 0.00091376, "MEAN_MOTION_DOT": 4.754e-05, "MEAN_MOTION_DDOT": 0}, "tle": {"line1": "1 34521U 97051HN  25360.52687309  .00004754  00000+0  91376-3 0  9991", "line2": "2 34521  86.3790  24.4764 0003338 162.7334 197.3992 14.63480775886748"}}, "geometry": {"type": "Point", "coordinates": [175.25887458424793, 82.53701383235959]}}, {"type": "Feature", "properties": {"norad_id": 34525, "name": "IRIDIUM 33 DEB", "group": "iridium-33-debris", "lat": -72.01595676245472, "lon": 29.386281620866498, "alt_km": 759.1969302337502, "timestamp": "2025-12-27T05:29:39.588993+00:00", "meta": {"OBJECT_NAME": "IRIDIUM 33 DEB", "OBJECT_ID": "1997-051HS", "EPOCH": "2025-12-26T20:39:51.981984", "MEAN_MOTION": 14.42938398, "ECCENTRICITY": 0.00061311, "INCLINATION": 86.3717, "RA_OF_ASC_NODE": 40.8155, "ARG_OF_PERICENTER": 62.2892, "MEAN_ANOMALY": 115.4959, "EPHEMERIS_TYPE": 0, "CLASSIFICATION_TYPE": "U", "NORAD_CAT_ID": 34525, "ELEMENT_SET_NO": 999, "REV_AT_EPOCH": 88291, "BSTAR": 0.00035622857, "MEAN_MOTION_DOT": 1.21e-05, "MEAN_MOTION_DDOT": 0}, "tle": {"line1": "1 34525U 97051HS  25360.86101831  .00001210  00000+0  35623-3 0  9990", "line2": "2 34525  86.3717  40.8155 0006131  62.2892 115.4959 14.42938398882919"}}, "geometry": {"type": "Point", "coordinates": [29.386281620866498, -72.01595676245472]}}, {"type": "Feature", "properties": {"norad_id": 34529, "name": "IRIDIUM 33 DEB", "group": "iridium-33-debris", "lat": 62.33408376169654, "lon": 36.20295303183849, "alt_km": 749.1577348799974, "timestamp": "2025-12-27T05:29:39.589021+00:00", "meta": {"OBJECT_NAME": "IRIDIUM 33 DEB", "OBJECT_ID": "1997-051HW", "EPOCH": "2025-12-26T14:12:06.788736", "MEAN_MOTION": 14.40627159, "ECCENTRICITY": 0.0006309, "INCLINATION": 86.3628, "RA_OF_ASC_NODE": 29.5057, "ARG_OF_PERICENTER": 138.1705, "MEAN_ANOMALY": 221.9977, "EPHEMERIS_TYPE": 0, "CLASSIFICATION_TYPE": "U", "NORAD_CAT_ID": 34529, "ELEMENT_SET_NO": 999, "REV_AT_EPOCH": 88341, "BSTAR": 0.00013424, "MEAN_MOTION_DOT": 4.48e-06, "MEAN_MOTION_DDOT": 0}, "tle": {"line1": "1 34529U 97051HW  25360.59174524  .00000448  00000+0  13424-3 0  9990", "line2": "2 34529  86.3628  29.5057 0006309 138.1705 221.9977 14.40627159883419"}}, "geometry": {"type": "Point", "coordinates": [36.20295303183849, 62.33408376169654]}}]}